GSAT0218 (GALILEO 22)   
1 43058U 17079D   26085.45298486  .00000000  00000+0  00000+0 0  9999
2 43058  55.0993 223.7765 0002274 289.2872  70.6427  1.70474511 51606
GOES 17                 
1 43226U 18022A   26087.52702662 -.00000201  00000+0  00000+0 0  9995
2 43226   0.7310  86.9413 0001539 236.2884 322.9344  1.00271184 29611
GSAT0221 (GALILEO 25)   
1 43564U 18060A   26086.52972301 -.00000097  00000+0  00000+0 0  9993
2 43564  57.1946 343.9877 0004798 314.1453  45.8491  1.70475505 47776
GSAT0222 (GALILEO 26)   
1 43565U 18060B   26086.74923849 -.00000097  00000+0  00000+0 0  9991
2 43565  57.1988 343.9851 0003423 288.4050  71.5917  1.70475080 47828
GSAT0219 (GALILEO 23)   
1 43566U 18060C   26085.21047518 -.00000094  00000+0  00000+0 0  9990
2 43566  57.1986 344.0284 0004705 320.4446  39.5555  1.70475357 47772
GSAT0220 (GALILEO 24)   
1 43567U 18060D   26086.01803140 -.00000096  00000+0  00000+0 0  9993
2 43567  57.1973 344.0063 0004469 319.2855  40.7149  1.70475173 47770
BEIDOU-3 M13            
1 43622U 18072A   26086.91859788  .00000000  00000+0  00000+0 0  9990
2 43622  56.5554  65.3395 0009121 312.4183  47.4992  1.86230932 51145
BEIDOU-3 M14            
1 43623U 18072B   26087.32100495 -.00000002  00000+0  00000+0 0  9994
2 43623  56.5577  65.3203 0006825 333.8606  26.0987  1.86230900 51146
GPS BIII-1              
1 43873U 18109A   26087.26453723  .00000045  00000+0  00000+0 0  9996
2 43873  55.6315  95.3771 0037867 198.7638 175.8510  2.00557717 53455
METEOR-M2 2             
1 44387U 19038A   26087.60141182 -.00000044  00000+0  98636-6 0  9999
2 44387  98.9111  73.7170 0000234 201.1366 158.9803 14.24340410349823
GPS BIII-2              
1 44506U 19056A   26086.66222638 -.00000084  00000+0  00000+0 0  9998
2 44506  55.6735 334.3842 0058566 197.7684   3.1076  2.00568459 48436
BEIDOU-3 M24            
1 44542U 19061A   26085.55133484 -.00000030  00000+0  00000+0 0  9992
2 44542  54.3970 185.5149 0008194  15.0686 344.9633  1.86228792 44252
BEIDOU-3 M23            
1 44543U 19061B   26086.19599552 -.00000037  00000+0  00000+0 0  9993
2 44543  54.3950 185.4615 0004848   1.0858 343.2659  1.86227116 44266
BEIDOU-3 M22            
1 44793U 19078A   26086.46420429 -.00000031  00000+0  00000+0 0  9998
2 44793  54.0095 302.7034 0007454  41.3303 318.7622  1.86231892 43124
BEIDOU-3 M21            
1 44794U 19078B   26085.53035061 -.00000029  00000+0  00000+0 0  9997
2 44794  53.9841 302.6991 0005380  37.5776 322.4952  1.86227568 43112
ELEKTRO-L 3             
1 44903U 19095A   26087.55978676 -.00000115  00000+0  00000+0 0  9996
2 44903   0.0560  54.0118 0001404 288.6315 120.7740  1.00271554 22903
GPS BIII-3              
1 45854U 20041A   26085.71752809 -.00000068  00000+0  00000+0 0  9996
2 45854  56.6202  32.1434 0061620 205.2589 334.9468  2.00560015 42385
